DUBAISAT-1              
1 35682U 09041B   26170.32752143  .00000577  00000+0  93001-4 0  9996
2 35682  98.0055 303.5617 0011594  67.6524 292.5912 14.75125326905413
OCEANSAT-2              
1 35931U 09051A   26170.91600750 -.00000178  00000+0 -96073-4 0  9996
2 35931  98.2323 157.4953 0015425 227.7189 132.2671 13.99663781879714
WORLDVIEW-2 (WV-2)      
1 35946U 09055A   26170.94724004  .00000081  00000+0  41370-4 0  9999
2 35946  98.4736 244.3588 0003878 198.8100 161.2944 14.37900127876049
SMOS                    
1 36036U 09059A   26170.48288297  .00000171  00000+0  68385-4 0  9997
2 36036  98.4425 357.7841 0001323  88.1500 271.9840 14.39773615873788
YAOGAN-7                
1 36110U 09069A   26170.66136404  .00000342  00000+0  54461-4 0  9993
2 36110  98.0069  56.5131 0025423  34.0945 326.1892 14.78011966889994
TANDEM-X                
1 36605U 10030A   26170.49711645  .00000194  00000+0  12414-4 0  9996
2 36605  97.4451 178.1721 0001891  87.7400 272.4051 15.19151444886990
CARTOSAT-2B             
1 36795U 10035A   26170.97880926  .00000666  00000+0  97886-4 0  9993
2 36795  97.9945 221.5112 0011465 174.6063 185.5274 14.78664890860260
YAOGAN-10               
1 36834U 10038A   26170.98320330  .00001465  00000+0  17656-3 0  9993
2 36834  97.8971 194.3654 0001754  87.7839 358.9459 14.85357169857628
COSMO-SKYMED 4          
1 37216U 10060A   26170.94164517  .00000978  00000+0  12936-3 0  9996
2 37216  97.8886 354.5010 0001439  85.2699 274.8678 14.82157404844971
RESOURCESAT-2           
1 37387U 11015A   26170.90431990  .00000071  00000+0  52633-4 0  9997
2 37387  98.7643 238.3276 0010248 246.7019 113.3080 14.21600282786566
HAIYANG-2A              
1 37781U 11043A   26170.95040190 -.00000173  00000+0 -13767-3 0  9998
2 37781  99.3393 173.5655 0005794  86.1124 274.0687 13.74331635747034
RASAT                   
1 37791U 11044D   26170.91228853  .00000355  00000+0  70052-4 0  9991
2 37791  98.0576 262.2677 0020382 180.0026 287.5037 14.68168189793584
SRMSAT                  
1 37841U 11058D   26170.35988047  .00000354  00000+0  48474-4 0  9990
2 37841  19.9728  46.3158 0011744 227.6220 288.1945 14.11575972758128
PLEIADES 1A             
1 38012U 11076F   26171.21864653  .00000201  00000+0  53170-4 0  9993
2 38012  98.1980 246.2815 0001706 100.3844 352.6602 14.58532935772435
ZIYUAN 1-02C (ZY 1-02C) 
1 38038U 11079A   26170.93631895  .00000121  00000+0  53998-4 0  9991
2 38038  98.4067 238.1875 0005357 307.1154 157.9338 14.38216024759607
ARIRANG-3 (KOMPSAT-3)   
1 38338U 12025B   26170.97522414  .00000332  00000+0  75171-4 0  9997
2 38338  98.1172 128.3870 0006746 102.4230 257.7727 14.62208235751754
EXACTVIEW-1 (ADS-1B)    
1 38709U 12039C   26170.76857300  .00000090  00000+0  58243-4 0  9998
2 38709  98.9781 288.2171 0011300 159.2257 200.9382 14.24985221723077
SPOT 6                  
1 38755U 12047A   26170.94187808 -.00000136  00000+0 -19456-4 0  9993
2 38755  98.2113 238.2190 0001538  93.9361 266.2014 14.58563168733457
PLEIADES 1B             
1 39019U 12068A   26170.89220023  .00000014  00000+0  12810-4 0  9991
2 39019  98.1944 245.9069 0001674  91.4617 268.6774 14.58561264721248
GOKTURK 2               
1 39030U 12073A   26170.92893741  .00000875  00000+0  13530-3 0  9991
2 39030  97.6814   8.2225 0001505  56.3138 303.8216 14.75547044724915
LANDSAT 8               
1 39084U 13008A   26170.90888624  .00000237  00000+0  62699-4 0  9994
2 39084  98.2301 241.0119 0001353  93.7751 266.3602 14.57096084698294
SARAL                   
1 39086U 13009A   26170.90397002  .00000052  00000+0  35044-4 0  9991
2 39086  98.5558 357.4367 0000628 288.9492  71.1624 14.32856484695995
GAOFEN-1                
1 39150U 13018A   26170.97699352  .00000571  00000+0  89024-4 0  9996
2 39150  97.9090 242.9884 0015693 256.4378 103.5084 14.76539715708655
VNREDSAT 1              
1 39160U 13021B   26170.95791086  .00000163  00000+0  39039-4 0  9994
2 39160  97.9073 224.2681 0001710  88.7566 271.3834 14.64858291700698
ARIRANG-5 (KOMPSAT-5)   
1 39227U 13042A   26170.95949090  .00000583  00000+0  45992-4 0  9992
2 39227  97.6201 357.6210 0005409 113.8593 246.3200 15.04495727704273
SKYSAT-A                
1 39418U 13066C   26170.70438518  .00002071  00000+0  12046-3 0  9998
2 39418  97.3811 220.0216 0019939 308.1910  51.7525 15.12985941688868
DUBAISAT-2              
1 39419U 13066D   26170.91992148  .00004521  00000+0  28014-3 0  9990
2 39419  97.4568 160.9923 0011955  31.9030 328.2922 15.10199834686801
GPM-CORE                
1 39574U 14009C   26170.86404754  .00009974  00000+0  21775-3 0  9999
2 39574  64.9723 299.1616 0011727 252.5747 107.4112 15.44621428698225
SENTINEL-1A             
1 39634U 14016A   26170.97320810 -.00000202  00000+0 -33218-4 0  9999
2 39634  98.1777 178.4654 0001403  82.8090 277.3270 14.59198646650424
KAZEOSAT 1              
1 39731U 14024A   26170.93584722 -.00000065  00000+0 -67554-5 0  9994
2 39731  98.3202 243.3149 0001306  76.3681 283.7655 14.42080291638954
