OBJECT_NAME,OBJECT_ID,EPOCH,MEAN_MOTION,ECCENTRICITY,INCLINATION,RA_OF_ASC_NODE,ARG_OF_PERICENTER,MEAN_ANOMALY,EPHEMERIS_TYPE,CLASSIFICATION_TYPE,NORAD_CAT_ID,ELEMENT_SET_NO,REV_AT_EPOCH,BSTAR,MEAN_MOTION_DOT,MEAN_MOTION_DDOT
DUBAISAT-1,2009-041B,2026-06-19T07:51:37.851552,14.75125326,.00115941,98.0055,303.5617,67.6524,292.5912,0,U,35682,999,90541,.93000659E-4,.577E-5,0
OCEANSAT-2,2009-051A,2026-06-19T21:59:03.048000,13.99663781,.00154259,98.2323,157.4953,227.7189,132.2671,0,U,35931,999,87971,-.96073278E-4,-.178E-5,0
WORLDVIEW-2 (WV-2),2009-055A,2026-06-19T22:44:01.539456,14.37900127,.00038784,98.4736,244.3588,198.8100,161.2944,0,U,35946,999,87604,.41370499E-4,.81E-6,0
SMOS,2009-059A,2026-06-19T11:35:21.088608,14.39773615,.00013232,98.4425,357.7841,88.1500,271.9840,0,U,36036,999,87378,.68385087E-4,.171E-5,0
YAOGAN-7,2009-069A,2026-06-19T15:52:21.853056,14.78011966,.00254237,98.0069,56.5131,34.0945,326.1892,0,U,36110,999,88999,.5446065E-4,.342E-5,0
TANDEM-X,2010-030A,2026-06-19T11:55:50.861280,15.19151444,.0001891,97.4451,178.1721,87.7400,272.4051,0,U,36605,999,88699,.12414064E-4,.194E-5,0
CARTOSAT-2B,2010-035A,2026-06-19T23:29:29.120064,14.78664890,.00114657,97.9945,221.5112,174.6063,185.5274,0,U,36795,999,86026,.97885569E-4,.666E-5,0
YAOGAN-10,2010-038A,2026-06-19T23:35:48.765120,14.85357169,.00017545,97.8971,194.3654,87.7839,358.9459,0,U,36834,999,85762,.17656394E-3,.1465E-4,0
COSMO-SKYMED 4,2010-060A,2026-06-19T22:35:58.142688,14.82157404,.00014393,97.8886,354.5010,85.2699,274.8678,0,U,37216,999,84497,.12935758E-3,.978E-5,0
RESOURCESAT-2,2011-015A,2026-06-19T21:42:13.239360,14.21600282,.00102485,98.7643,238.3276,246.7019,113.3080,0,U,37387,999,78656,.52633337E-4,.71E-6,0
HAIYANG-2A,2011-043A,2026-06-19T22:48:34.724160,13.74331635,.00057949,99.3393,173.5655,86.1124,274.0687,0,U,37781,999,74703,-.13766581E-3,-.173E-5,0
RASAT,2011-044D,2026-06-19T21:53:41.728992,14.68168189,.00203826,98.0576,262.2677,180.0026,287.5037,0,U,37791,999,79358,.70051567E-4,.355E-5,0
SRMSAT,2011-058D,2026-06-19T08:38:13.672608,14.11575972,.00117441,19.9728,46.3158,227.6220,288.1945,0,U,37841,999,75812,.48474163E-4,.354E-5,0
PLEIADES 1A,2011-076F,2026-06-20T05:14:51.060192,14.58532935,.0001706,98.1980,246.2815,100.3844,352.6602,0,U,38012,999,77243,.5317E-4,.201E-5,0
ZIYUAN 1-02C (ZY 1-02C),2011-079A,2026-06-19T22:28:17.957280,14.38216024,.00053578,98.4067,238.1875,307.1154,157.9338,0,U,38038,999,75960,.53997771E-4,.121E-5,0
ARIRANG-3 (KOMPSAT-3),2012-025B,2026-06-19T23:24:19.365696,14.62208235,.00067466,98.1172,128.3870,102.4230,257.7727,0,U,38338,999,75175,.75171463E-4,.332E-5,0
EXACTVIEW-1 (ADS-1B),2012-039C,2026-06-19T18:26:44.707200,14.24985221,.00113004,98.9781,288.2171,159.2257,200.9382,0,U,38709,999,72307,.58242993E-4,.9E-6,0
SPOT 6,2012-047A,2026-06-19T22:36:18.266112,14.58563168,.00015389,98.2113,238.2190,93.9361,266.2014,0,U,38755,999,73345,-.1945555E-4,-.136E-5,0
PLEIADES 1B,2012-068A,2026-06-19T21:24:46.099872,14.58561264,.00016741,98.1944,245.9069,91.4617,268.6774,0,U,39019,999,72124,.12809569E-4,.14E-6,0
GOKTURK 2,2012-073A,2026-06-19T22:17:40.192224,14.75547044,.00015053,97.6814,8.2225,56.3138,303.8216,0,U,39030,999,72491,.13530078E-3,.875E-5,0
LANDSAT 8,2013-008A,2026-06-19T21:48:47.771136,14.57096084,.00013535,98.2301,241.0119,93.7751,266.3602,0,U,39084,999,69829,.62698964E-4,.237E-5,0
SARAL,2013-009A,2026-06-19T21:41:43.009728,14.32856484,.00006282,98.5558,357.4367,288.9492,71.1624,0,U,39086,999,69599,.35043564E-4,.52E-6,0
GAOFEN-1,2013-018A,2026-06-19T23:26:52.240128,14.76539715,.00156934,97.9090,242.9884,256.4378,103.5084,0,U,39150,999,70865,.89024482E-4,.571E-5,0
VNREDSAT 1,2013-021B,2026-06-19T22:59:23.498304,14.64858291,.00017109,97.9073,224.2681,88.7566,271.3834,0,U,39160,999,70069,.39038659E-4,.163E-5,0
ARIRANG-5 (KOMPSAT-5),2013-042A,2026-06-19T23:01:40.013760,15.04495727,.00054093,97.6201,357.6210,113.8593,246.3200,0,U,39227,999,70427,.45992424E-4,.583E-5,0
SKYSAT-A,2013-066C,2026-06-19T16:54:18.879552,15.12985941,.0019939,97.3811,220.0216,308.1910,51.7525,0,U,39418,999,68886,.12045578E-3,.2071E-4,0
DUBAISAT-2,2013-066D,2026-06-19T22:04:41.215872,15.10199834,.00119555,97.4568,160.9923,31.9030,328.2922,0,U,39419,999,68680,.28014333E-3,.4521E-4,0
GPM-CORE,2014-009C,2026-06-19T20:44:13.707456,15.44621428,.00117275,64.9723,299.1616,252.5747,107.4112,0,U,39574,999,69822,.21774544E-3,.9974E-4,0
SENTINEL-1A,2014-016A,2026-06-19T23:21:25.179840,14.59198646,.00014036,98.1777,178.4654,82.8090,277.3270,0,U,39634,999,65042,-.3321773E-4,-.202E-5,0
KAZEOSAT 1,2014-024A,2026-06-19T22:27:37.199808,14.42080291,.00013063,98.3202,243.3149,76.3681,283.7655,0,U,39731,999,63895,-.6755357E-5,-.65E-6,0
